CTC1_L_00560016-03
1 10062U 25008GE  26075.70038194  .00000000  00000+0  00000-0 0  9995
2 10062  98.0000 180.0000 0000000   0.0000   0.0000 14.73473854    14
CTC1_L_00560016-04
1 10063U 22379QM  26075.70038194  .00000000  00000+0  00000-0 0  9994
2 10063  98.0000 180.0000 0000000   0.0000  90.0000 14.73473854    14
CTC1_L_00560017-01
1 10064U 26003OL  26075.70038194  .00000000  00000+0  00000-0 0  9993
2 10064  98.0000 192.0000 0000000   0.0000 192.0000 14.73473854    11
CTC1_L_00560017-02
1 10065U 24331HU  26075.70038194  .00000000  00000+0  00000-0 0  9996
2 10065  98.0000 192.0000 0000000   0.0000 282.0000 14.73473854    12
CTC1_L_00560017-03
1 10066U 25880GR  26075.70038194  .00000000  00000+0  00000-0 0  9997
2 10066  98.0000 192.0000 0000000   0.0000  12.0000 14.73473854    14
CTC1_L_00560017-04
1 10067U 22274TX  26075.70038194  .00000000  00000+0  00000-0 0  9992
2 10067  98.0000 192.0000 0000000   0.0000 102.0000 14.73473854    15
CTC1_L_00560018-01
1 10068U 22175RQ  26075.70038194  .00000000  00000+0  00000-0 0  9993
2 10068  98.0000 204.0000 0000000   0.0000 204.0000 14.73473854    13
CTC1_L_00560018-02
1 10069U 23761KZ  26075.70038194  .00000000  00000+0  00000-0 0  9996
2 10069  98.0000 204.0000 0000000   0.0000 294.0000 14.73473854    13
CTC1_L_00560018-03
1 10070U 24729UF  26075.70038194  .00000000  00000+0  00000-0 0  9993
2 10070  98.0000 204.0000 0000000   0.0000  24.0000 14.73473854    16
CTC1_L_00560018-04
1 10071U 24092OJ  26075.70038194  .00000000  00000+0  00000-0 0  9997
2 10071  98.0000 204.0000 0000000   0.0000 114.0000 14.73473854    17
CTC1_L_00560019-01
1 10072U 25678UU  26075.70038194  .00000000  00000+0  00000-0 0  9999
2 10072  98.0000 216.0000 0000000   0.0000 216.0000 14.73473854    14
CTC1_L_00560019-02
1 10073U 22557ZU  26075.70038194  .00000000  00000+0  00000-0 0  9993
2 10073  98.0000 216.0000 0000000   0.0000 306.0000 14.73473854    15
CTC1_L_00560019-03
1 10074U 25382JZ  26075.70038194  .00000000  00000+0  00000-0 0  9993
2 10074  98.0000 216.0000 0000000   0.0000  36.0000 14.73473854    16
CTC1_L_00560019-04
1 10075U 23077ZA  26075.70038194  .00000000  00000+0  00000-0 0  9993
2 10075  98.0000 216.0000 0000000   0.0000 126.0000 14.73473854    17
CTC1_L_00560020-01
1 10076U 22728HG  26075.70038194  .00000000  00000+0  00000-0 0  9996
2 10076  98.0000 228.0000 0000000   0.0000 228.0000 14.73473854    14
CTC1_L_00560020-02
1 10077U 22380LY  26075.70038194  .00000000  00000+0  00000-0 0  9991
2 10077  98.0000 228.0000 0000000   0.0000 318.0000 14.73473854    15
CTC1_L_00560020-03
1 10078U 26288KB  26075.70038194  .00000000  00000+0  00000-0 0  9993
2 10078  98.0000 228.0000 0000000   0.0000  48.0000 14.73473854    16
CTC1_L_00560020-04
1 10079U 22786NU  26075.70038194  .00000000  00000+0  00000-0 0  9993
2 10079  98.0000 228.0000 0000000   0.0000 138.0000 14.73473854    17
CTC1_L_00560021-01
1 10080U 25546NK  26075.70038194  .00000000  00000+0  00000-0 0  9992
2 10080  98.0000 240.0000 0000000   0.0000 240.0000 14.73473854    17
CTC1_L_00560021-02
1 10081U 22744QJ  26075.70038194  .00000000  00000+0  00000-0 0  9990
2 10081  98.0000 240.0000 0000000   0.0000 330.0000 14.73473854    18
CTC1_L_00560021-03
1 10082U 26898EL  26075.70038194  .00000000  00000+0  00000-0 0  9995
2 10082  98.0000 240.0000 0000000   0.0000  60.0000 14.73473854    19
CTC1_L_00560021-04
1 10083U 23733FI  26075.70038194  .00000000  00000+0  00000-0 0  9991
2 10083  98.0000 240.0000 0000000   0.0000 150.0000 14.73473854    10
CTC1_L_00560022-01
1 10084U 23483NH  26075.70038194  .00000000  00000+0  00000-0 0  9994
2 10084  98.0000 252.0000 0000000   0.0000 252.0000 14.73473854    17
CTC1_L_00560022-02
1 10085U 23655UG  26075.70038194  .00000000  00000+0  00000-0 0  9996
2 10085  98.0000 252.0000 0000000   0.0000 342.0000 14.73473854    18
CTC1_L_00560022-03
1 10086U 24108FH  26075.70038194  .00000000  00000+0  00000-0 0  9991
2 10086  98.0000 252.0000 0000000   0.0000  72.0000 14.73473854    19
CTC1_L_00560022-04
1 10087U 24447JY  26075.70038194  .00000000  00000+0  00000-0 0  9998
2 10087  98.0000 252.0000 0000000   0.0000 162.0000 14.73473854    10
CTC1_L_00560023-01
1 10088U 25998GV  26075.70038194  .00000000  00000+0  00000-0 0  9991
2 10088  98.0000 264.0000 0000000   0.0000 264.0000 14.73473854    17
CTC1_L_00560023-02
1 10089U 22534EC  26075.70038194  .00000000  00000+0  00000-0 0  9995
2 10089  98.0000 264.0000 0000000   0.0000 354.0000 14.73473854    18
CTC1_L_00560023-03
1 10090U 22505LY  26075.70038194  .00000000  00000+0  00000-0 0  9995
2 10090  98.0000 264.0000 0000000   0.0000  84.0000 14.73473854    10
CTC1_L_00560023-04
1 10091U 22424IY  26075.70038194  .00000000  00000+0  00000-0 0  9996
2 10091  98.0000 264.0000 0000000   0.0000 174.0000 14.73473854    11
CTC1_L_00560024-01
1 10092U 25362FT  26075.70038194  .00000000  00000+0  00000-0 0  9991
2 10092  98.0000 276.0000 0000000   0.0000 276.0000 14.73473854    18
CTC1_L_00560024-02
1 10093U 22091ME  26075.70038194  .00000000  00000+0  00000-0 0  9998
2 10093  98.0000 276.0000 0000000   0.0000   6.0000 14.73473854    10
CTC1_L_00560024-03
1 10094U 25158QN  26075.70038194  .00000000  00000+0  00000-0 0  9996
2 10094  98.0000 276.0000 0000000   0.0000  96.0000 14.73473854    10
CTC1_L_00560024-04
1 10095U 23980PU  26075.70038194  .00000000  00000+0  00000-0 0  9998
2 10095  98.0000 276.0000 0000000   0.0000 186.0000 14.73473854    11
CTC1_L_00560025-01
1 10096U 25173OS  26075.70038194  .00000000  00000+0  00000-0 0  9995
2 10096  98.0000 288.0000 0000000   0.0000 288.0000 14.73473854    18
CTC1_L_00560025-02
1 10097U 25902NT  26075.70038194  .00000000  00000+0  00000-0 0  9996
2 10097  98.0000 288.0000 0000000   0.0000  18.0000 14.73473854    10
CTC1_L_00560025-03
1 10098U 23253SP  26075.70038194  .00000000  00000+0  00000-0 0  9994
2 10098  98.0000 288.0000 0000000   0.0000 108.0000 14.73473854    11
CTC1_L_00560025-04
1 10099U 26173OJ  26075.70038194  .00000000  00000+0  00000-0 0  9999
2 10099  98.0000 288.0000 0000000   0.0000 198.0000 14.73473854    11
CTC1_L_00560026-01
1 10100U 24407VE  26075.70038194  .00000000  00000+0  00000-0 0  9990
2 10100  98.0000 300.0000 0000000   0.0000 300.0000 14.73473854    14
CTC1_L_00560026-02
1 10101U 26657JE  26075.70038194  .00000000  00000+0  00000-0 0  9990
2 10101  98.0000 300.0000 0000000   0.0000  30.0000 14.73473854    15
CTC1_L_00560026-03
1 10102U 25083KM  26075.70038194  .00000000  00000+0  00000-0 0  9993
2 10102  98.0000 300.0000 0000000   0.0000 120.0000 14.73473854    16
CTC1_L_00560026-04
1 10103U 26236XS  26075.70038194  .00000000  00000+0  00000-0 0  9995
2 10103  98.0000 300.0000 0000000   0.0000 210.0000 14.73473854    17
CTC1_L_00560027-01
1 10104U 25886FM  26075.70038194  .00000000  00000+0  00000-0 0  9996
2 10104  98.0000 312.0000 0000000   0.0000 312.0000 14.73473854    14
CTC1_L_00560027-02
1 10105U 24535WY  26075.70038194  .00000000  00000+0  00000-0 0  9997
2 10105  98.0000 312.0000 0000000   0.0000  42.0000 14.73473854    15
CTC1_L_00560027-03
1 10106U 26143EJ  26075.70038194  .00000000  00000+0  00000-0 0  9995
2 10106  98.0000 312.0000 0000000   0.0000 132.0000 14.73473854    16
CTC1_L_00560027-04
1 10107U 25579DU  26075.70038194  .00000000  00000+0  00000-0 0  9998
2 10107  98.0000 312.0000 0000000   0.0000 222.0000 14.73473854    17
CTC1_L_00560028-01
1 10108U 23563R   26075.70038194  .00000000  00000+0  00000-0 0  9990
2 10108  98.0000 324.0000 0000000   0.0000 324.0000 14.73473854    14
CTC1_L_00560028-02
1 10109U 25097KO  26075.70038194  .00000000  00000+0  00000-0 0  9995
2 10109  98.0000 324.0000 0000000   0.0000  54.0000 14.73473854    15
CTC1_L_00560028-03
1 10110U 25256YW  26075.70038194  .00000000  00000+0  00000-0 0  9994
2 10110  98.0000 324.0000 0000000   0.0000 144.0000 14.73473854    17
CTC1_L_00560028-04
1 10111U 22363YE  26075.70038194  .00000000  00000+0  00000-0 0  9991
2 10111  98.0000 324.0000 0000000   0.0000 234.0000 14.73473854    18
CTC1_L_00560029-01
1 10112U 26709RI  26075.70038194  .00000000  00000+0  00000-0 0  9990
2 10112  98.0000 336.0000 0000000   0.0000 336.0000 14.73473854    15
CTC1_L_00560029-02
1 10113U 26511XY  26075.70038194  .00000000  00000+0  00000-0 0  9992
2 10113  98.0000 336.0000 0000000   0.0000  66.0000 14.73473854    16
CTC1_L_00560029-03
1 10114U 22372YZ  26075.70038194  .00000000  00000+0  00000-0 0  9994
2 10114  98.0000 336.0000 0000000   0.0000 156.0000 14.73473854    17
CTC1_L_00560029-04
1 10115U 26492IL  26075.70038194  .00000000  00000+0  00000-0 0  9992
2 10115  98.0000 336.0000 0000000   0.0000 246.0000 14.73473854    18
CTC1_L_00560030-01
1 10116U 22213S   26075.70038194  .00000000  00000+0  00000-0 0  9990
2 10116  98.0000 348.0000 0000000   0.0000 348.0000 14.73473854    15
CTC1_L_00560030-02
1 10117U 25687NC  26075.70038194  .00000000  00000+0  00000-0 0  9999
2 10117  98.0000 348.0000 0000000   0.0000  78.0000 14.73473854    16
CTC1_L_00560030-03
1 10118U 23605CG  26075.70038194  .00000000  00000+0  00000-0 0  9998
2 10118  98.0000 348.0000 0000000   0.0000 168.0000 14.73473854    17
CTC1_L_00560030-04
1 10119U 23450ZY  26075.70038194  .00000000  00000+0  00000-0 0  9997
2 10119  98.0000 348.0000 0000000   0.0000 258.0000 14.73473854    18
